STARLINK-37022          
1 68101U 26044A   26097.16668981 -.03724242  00000+0 -11955+0 0  9996
2 68101  97.2852  58.4052 0001406 104.1529 228.3364 15.36545391  5980